NORAD_CAT_ID,OBJECT_NAME,OBJECT_TYPE,EPOCH,MEAN_MOTION,ECCENTRICITY,INCLINATION,RA_OF_ASC_NODE,ARG_OF_PERICENTER,MEAN_ANOMALY,BSTAR,MEAN_MOTION_DOT,MEAN_MOTION_DDOT,TLE_LINE0,TLE_LINE1,TLE_LINE2,SEMIMAJOR_AXIS,PERIOD,APOGEE,PERIGEE,DECAYED
47762,STARLINK-2180,PAYLOAD,2022-08-08 18:37:50,15.06424271,0.00013,53.0559,342.5792,66.1566,293.9559,0.00058404,8.434e-05,0.0,0 STARLINK-2180,1 47762U 21017AS  22220.77628256  .00008434  00000-0  58404-3 0  9991,2 47762  53.0559 342.5792 0001300  66.1566 293.9559 15.06424271 80250,6925.274,95.591,548.039,546.239,0.0
47762,STARLINK-2180,PAYLOAD,2022-08-09 10:33:14,15.06404568,0.0001299,53.0559,339.6007,66.7154,293.3971,-2.6427e-05,-6.75e-06,0.0,0 STARLINK-2180,1 47762U 21017AS  22221.43975233 -.00000675  00000-0 -26427-4 0  9997,2 47762  53.0559 339.6007 0001299  66.7154 293.3971 15.06404568 79709,6925.335,95.592,548.099,546.3,0.0
47762,STARLINK-2180,PAYLOAD,2022-08-10 10:26:22,15.063854699999998,0.0001259,53.0566,335.1336,66.4451,293.6670000000001,-0.00012049,-2.075e-05,0.0,0 STARLINK-2180,1 47762U 21017AS  22222.43497766 -.00002075  00000-0 -12049-3 0  9998,2 47762  53.0566 335.1336 0001259  66.4451 293.6670 15.06385470 79851,6925.393,95.593,548.13,546.386,0.0
47762,STARLINK-2180,PAYLOAD,2022-08-11 03:57:17,15.06390481,0.0001455,53.0565,331.8574,68.7394,291.375,-5.7444e-05,-1.137e-05,0.0,0 STARLINK-2180,1 47762U 21017AS  22223.16479123 -.00001137  00000-0 -57444-4 0  9993,2 47762  53.0565 331.8574 0001455  68.7394 291.3750 15.06390481 79960,6925.378000000002,95.593,548.25,546.235,0.0
47762,STARLINK-2180,PAYLOAD,2022-08-11 13:30:32,15.063916399999998,0.0001483,53.0564,330.0703,69.1571,290.9576,3.4249000000000004e-05,2.29e-06,0.0,0 STARLINK-2180,1 47762U 21017AS  22223.56287054  .00000229  00000-0  34249-4 0  9994,2 47762  53.0564 330.0703 0001483  69.1571 290.9576 15.06391640 80676,6925.374,95.593,548.266,546.212,0.0
47762,STARLINK-2180,PAYLOAD,2022-08-12 00:39:18,15.06390362,0.0001472,53.0564,327.9855,69.3177,290.7969,0.00022371,3.051e-05,0.0,0 STARLINK-2180,1 47762U 21017AS  22224.02729563  .00003051  00000-0  22371-3 0  9990,2 47762  53.0564 327.9855 0001472  69.3177 290.7969 15.06390362 80091,6925.378000000002,95.593,548.263,546.224,0.0
47762,STARLINK-2180,PAYLOAD,2022-08-12 13:23:37,15.06388795,0.0001493,53.0564,325.6029,68.2432,291.8715,0.00018131,2.419e-05,0.0,0 STARLINK-2180,1 47762U 21017AS  22224.55807697  .00002419  00000-0  18131-3 0  9999,2 47762  53.0564 325.6029 0001493  68.2432 291.8715 15.06388795 80823,6925.3830000000025,95.593,548.2819999999998,546.214,0.0
47762,STARLINK-2180,PAYLOAD,2022-08-13 02:07:56,15.06401528,0.0001498,53.0565,323.2203,67.4738,292.641,0.00013908,1.791e-05,0.0,0 STARLINK-2180,1 47762U 21017AS  22225.08884620  .00001791  00000-0  13908-3 0  9998,2 47762  53.0565 323.2203 0001498  67.4738 292.6410 15.06401528 80255,6925.344,95.592,548.246,546.1709999999998,0.0
47762,STARLINK-2180,PAYLOAD,2022-08-13 11:41:11,15.06394619,0.0001456,53.0564,321.4329,68.4791,291.6353,6.5632e-05,6.96e-06,0.0,0 STARLINK-2180,1 47762U 21017AS  22225.48693405  .00000696  00000-0  65632-4 0  9996,2 47762  53.0564 321.4329 0001456  68.4791 291.6353 15.06394619 80962,6925.365,95.592,548.238,546.222,0.0
47762,STARLINK-2180,PAYLOAD,2022-08-13 16:27:48,15.06394498,0.0001479,53.0564,320.5396,67.4517,292.6628,5.040600000000001e-05,4.69e-06,0.0,0 STARLINK-2180,1 47762U 21017AS  22225.68597554  .00000469  00000-0  50406-4 0  9997,2 47762  53.0564 320.5396 0001479  67.4517 292.6628 15.06394498 80990,6925.365,95.592,548.255,546.206,0.0
47762,STARLINK-2180,PAYLOAD,2022-08-14 11:34:16,15.06394506,0.0001318,53.0558,316.964,76.969,283.1446,-2.8803e-05,-7.1e-06,0.0,0 STARLINK-2180,1 47762U 21017AS  22226.48214046 -.00000710  00000-0 -28803-4 0  9995,2 47762  53.0558 316.9640 0001318  76.9690 283.1446 15.06394506 81111,6925.365,95.592,548.143,546.318,0.0
47762,STARLINK-2180,PAYLOAD,2022-08-15 01:54:07,15.06395979,0.0001395999999999,53.0562,314.2848,64.9289,295.1845,8.295e-05,9.54e-06,0.0,0 STARLINK-2180,1 47762U 21017AS  22227.07925878  .00000954  00000-0  82950-4 0  9994,2 47762  53.0562 314.2848 0001396  64.9289 295.1845 15.06395979 80552,6925.361,95.592,548.193,546.259,0.0
47762,STARLINK-2180,PAYLOAD,2022-08-15 09:51:50,15.06390342,0.0001396999999999,53.056,312.7954,70.7726,289.3414,-2.6497e-06,-3.21e-06,0.0,0 STARLINK-2180,1 47762U 21017AS  22227.41100016 -.00000321  00000-0 -26497-5 0  9996,2 47762  53.0560 312.7954 0001397  70.7726 289.3414 15.06390342 80605,6925.378000000002,95.593,548.211,546.276,0.0
47762,STARLINK-2180,PAYLOAD,2022-08-15 14:38:27,15.06378516,0.0001245,53.056,311.902,74.4325,285.6802,0.00015411,2.014e-05,0.0,0 STARLINK-2180,1 47762U 21017AS  22227.61004478  .00002014  00000-0  15411-3 0  9994,2 47762  53.0560 311.9020 0001245  74.4325 285.6802 15.06378516 80630,6925.4140000000025,95.594,548.1419999999998,546.4169999999998,0.0
47762,STARLINK-2180,PAYLOAD,2022-08-16 00:11:41,15.06390012,0.0001318,53.0561,310.1153,65.2801,294.8325,0.00011693,1.46e-05,0.0,0 STARLINK-2180,1 47762U 21017AS  22228.00812222  .00001460  00000-0  11693-3 0  9994,2 47762  53.0561 310.1153 0001318  65.2801 294.8325 15.06390012 80690,6925.379,95.593,548.1569999999998,546.331,0.0
47762,STARLINK-2180,PAYLOAD,2022-08-16 11:20:28,15.06397927,0.0001343,53.0559,308.0304,65.6402,294.4727,0.00014699,1.909e-05,0.0,0 STARLINK-2180,1 47762U 21017AS  22228.47254668  .00001909  00000-0  14699-3 0  9996,2 47762  53.0559 308.0304 0001343  65.6402 294.4727 15.06397927 81415,6925.355,95.592,548.15,546.29,0.0
47762,STARLINK-2180,PAYLOAD,2022-08-17 09:38:01,15.06393658,0.0001409,53.0558,303.8608,64.8273,295.2862,8.582e-05,9.97e-06,0.0,0 STARLINK-2180,1 47762U 21017AS  22229.40140621  .00000997  00000-0  85820-4 0  9994,2 47762  53.0558 303.8608 0001409  64.8273 295.2862 15.06393658 80903,6925.368,95.593,548.2090000000002,546.257,0.0
47762,STARLINK-2180,PAYLOAD,2022-08-17 11:13:33,15.06395832,0.0001433,53.0557,303.5629,65.3292,294.7846,0.00010534,1.288e-05,0.0,0 STARLINK-2180,1 47762U 21017AS  22229.46775160  .00001288  00000-0  10534-3 0  9995,2 47762  53.0557 303.5629 0001433  65.3292 294.7846 15.06395832 81561,6925.361,95.592,548.219,546.234,0.0
47762,STARLINK-2180,PAYLOAD,2022-08-18 11:06:39,15.06395399,0.0001441999999999,53.0554,299.0954,65.3673,294.7466,3.9841000000000005e-06,-2.22e-06,0.0,0 STARLINK-2180,1 47762U 21017AS  22230.46295822 -.00000222  00000-0  39841-5 0  9991,2 47762  53.0554 299.0954 0001442  65.3673 294.7466 15.06395399 81062,6925.363,95.592,548.226,546.229,0.0
47762,STARLINK-2180,PAYLOAD,2022-08-18 23:50:57,15.06436883,0.0001284999999999,53.0554,296.7126,60.518,299.5937,-0.00040767,-6.354e-05,0.0,0 STARLINK-2180,1 47762U 21017AS  22230.99372208 -.00006354  00000-0 -40767-3 0  9993,2 47762  53.0554 296.7126 0001285  60.5180 299.5937 15.06436883 81141,6925.236,95.59,547.99,546.211,0.0
47762,STARLINK-2180,PAYLOAD,2022-08-19 10:59:44,15.06393559,0.0001452,53.0553,294.6278,64.2791,295.8348,3.778800000000001e-05,2.81e-06,0.0,0 STARLINK-2180,1 47762U 21017AS  22231.45815920  .00000281  00000-0  37788-4 0  9999,2 47762  53.0553 294.6278 0001452  64.2791 295.8348 15.06393559 81215,6925.368,95.593,548.239,546.2280000000002,0.0
47762,STARLINK-2180,PAYLOAD,2022-08-20 10:52:50,15.06388832,0.0001393,53.0568,290.1628,54.4761,305.6358,6.7358e-05,7.22e-06,0.0,0 STARLINK-2180,1 47762U 21017AS  22232.45336735  .00000722  00000-0  67358-4 0  9998,2 47762  53.0568 290.1628 0001393  54.4761 305.6358 15.06388832 82011,6925.3830000000025,95.593,548.212,546.283,0.0
47762,STARLINK-2180,PAYLOAD,2022-08-20 20:26:05,15.06389466,0.0001415,53.0555,288.3733,61.0953,299.0178,-4.7138e-06,-3.52e-06,0.0,0 STARLINK-2180,1 47762U 21017AS  22232.85145172 -.00000352  00000-0 -47138-5 0  9991,2 47762  53.0555 288.3733 0001415  61.0953 299.0178 15.06389466 81429,6925.380999999999,95.593,548.226,546.266,0.0
47762,STARLINK-2180,PAYLOAD,2022-08-21 09:10:24,15.06396825,0.0001398,53.0556,285.9905,66.0632,294.0503,-9.0751e-06,-4.17e-06,0.0,0 STARLINK-2180,1 47762U 21017AS  22233.38222350 -.00000417  00000-0 -90751-5 0  9995,2 47762  53.0556 285.9905 0001398  66.0632 294.0503 15.06396825 82158,6925.358,95.592,548.191,546.255,0.0
47762,STARLINK-2180,PAYLOAD,2022-08-22 07:27:57,15.06398359,0.0001501,53.0552,281.8209,62.5113,297.6028,7.8187e-05,8.83e-06,0.0,0 STARLINK-2180,1 47762U 21017AS  22234.31107824  .00000883  00000-0  78187-4 0  9990,2 47762  53.0552 281.8209 0001501  62.5113 297.6028 15.06398359 82297,6925.354,95.592,548.258,546.179,0.0
47762,STARLINK-2180,PAYLOAD,2022-08-22 12:14:33,15.06409002,0.0001484,53.0551,280.9275,61.0326,299.0811,-6.6369e-05,-1.27e-05,0.0,0 STARLINK-2180,1 47762U 21017AS  22234.51011449 -.00001270  00000-0 -66369-4 0  9991,2 47762  53.0551 280.9275 0001484  61.0326 299.0811 15.06409002 81674,6925.321,95.592,548.214,546.158,0.0
47762,STARLINK-2180,PAYLOAD,2022-08-22 20:12:16,15.06397147,0.0001503,53.0551,279.4379,60.0857,300.0281,0.00016578,2.188e-05,0.0,0 STARLINK-2180,1 47762U 21017AS  22234.84185202  .00002188  00000-0  16578-3 0  9999,2 47762  53.0551 279.4379 0001503  60.0857 300.0281 15.06397147 82370,6925.357,95.592,548.263,546.181,0.0
47762,STARLINK-2180,PAYLOAD,2022-08-23 12:07:39,15.06398976,0.00015,53.0549,276.4602,59.7046,300.4091,0.00011847,1.483e-05,0.0,0 STARLINK-2180,1 47762U 21017AS  22235.50531931  .00001483  00000-0  11847-3 0  9998,2 47762  53.0549 276.4602 0001500  59.7046 300.4091 15.06398976 81828,6925.352,95.592,548.255,546.178,0.0
47762,STARLINK-2180,PAYLOAD,2022-08-24 02:27:31,15.06393722,0.0001273,53.0548,273.7774,70.4467,289.6659,-7.242699999999998e-07,-2.92e-06,0.0,0 STARLINK-2180,1 47762U 21017AS  22236.10244716 -.00000292  00000-0 -72427-6 0  9990,2 47762  53.0548 273.7774 0001273  70.4467 289.6659 15.06393722 81913,6925.368,95.593,548.114,546.351,0.0
